{"fetched_at":"2026-07-07T07:58:54.221Z","source":"https://celestrak.org/NORAD/elements/gp.php?NAME=SPOT&FORMAT=JSON","constellation":"spot","records":[{"OBJECT_NAME":"SPOT 6","OBJECT_ID":"2012-047A","EPOCH":"2026-07-06T19:38:00.743424","CLASSIFICATION_TYPE":"U","MEAN_MOTION":14.58535781,"ECCENTRICITY":0.0001173,"INCLINATION":98.2106,"RA_OF_ASC_NODE":254.8967,"ARG_OF_PERICENTER":78.3153,"MEAN_ANOMALY":281.8178,"EPHEMERIS_TYPE":0,"NORAD_CAT_ID":38755,"ELEMENT_SET_NO":999,"REV_AT_EPOCH":73591,"BSTAR":0.000088057,"MEAN_MOTION_DOT":0.00000363,"MEAN_MOTION_DDOT":0},{"OBJECT_NAME":"SPOT 7","OBJECT_ID":"2014-034A","EPOCH":"2026-07-06T20:06:27.475200","CLASSIFICATION_TYPE":"U","MEAN_MOTION":14.60976668,"ECCENTRICITY":0.0001492,"INCLINATION":98.0613,"RA_OF_ASC_NODE":249.8227,"ARG_OF_PERICENTER":97.9776,"MEAN_ANOMALY":262.1594,"EPHEMERIS_TYPE":0,"NORAD_CAT_ID":40053,"ELEMENT_SET_NO":999,"REV_AT_EPOCH":64000,"BSTAR":0.00010629,"MEAN_MOTION_DOT":0.00000476,"MEAN_MOTION_DDOT":0}]}
